# From MPEC 2023-J29
428P/Gibbs,e,8.5025,299.3065,36.8836,3.489032,0.1512330,0.51810054,248.6966,11/12.0/2025,2000,g 15.0,4.0
# From MPEC 2024-EF7
429P/LINEAR-Hill,e,7.5140,322.0023,75.7504,3.556271,0.1469643,0.49065998,207.2163,11/12.0/2025,2000,g 15.5,4.0
# From MPEC 2022-L66
430P/Scotti,e,4.4759,54.6398,94.4722,3.102805,0.1803318,0.50042709,259.6605,11/12.0/2025,2000,g 16.5,4.0
# From MPC181194
431P/Scotti,e,22.3759,202.8325,200.0118,3.477352,0.1519956,0.47719133,207.8645,11/12.0/2025,2000,g 14.0,4.0
# From MPEC 2021-U31
432P/PANSTARRS,e,10.0672,239.1310,105.2435,3.038689,0.1860693,0.24075031,285.8708,11/12.0/2025,2000,g 17.0,4.0
# From MPEC 2024-D33
434P/Tenagra,e,6.3365,288.9095,128.4737,4.136669,0.1171461,0.27412521,173.0195,11/12.0/2025,2000,g 13.0,4.0
# From MPEC 2021-W31
435P/PANSTARRS,e,18.8747,98.5235,244.1880,3.021988,0.1876139,0.31748112,294.5908,11/12.0/2025,2000,g 17.0,4.0
# From MPEC 2023-B57
437P/Lemmon-PANSTARRS,e,3.6887,245.8417,207.1115,4.569973,0.1008866,0.25497696,118.9965,11/12.0/2025,2000,g 13.0,4.0
# From MPC181194
438P/Christensen,e,8.2807,260.1088,58.9607,3.853323,0.1303020,0.41408638,267.2137,11/12.0/2025,2000,g 14.5,4.0
# From MPEC 2022-C56
439P/LINEAR,e,7.1110,56.4378,342.1074,3.492111,0.1510331,0.46894081,232.3939,11/12.0/2025,2000,g 13.5,4.0
# From MPEC 2025-UQ3
441P/PANSTARRS,e,2.5745,143.5863,178.8540,4.131329,0.1173733,0.19446805,7.4755,11/12.0/2025,2000,g 13.5,4.0
# From MPEC 2024-N80
442P/McNaught,e,6.0580,31.9088,310.6153,4.951785,0.0894461,0.53264957,105.7873,11/12.0/2025,2000,g 13.5,4.0
# From MPEC 2024-TD8
443P/PANSTARRS-Christensen,e,19.8880,108.9330,145.0441,4.124374,0.1176703,0.28283150,132.9629,11/12.0/2025,2000,g 13.5,4.0
# From MPC188421
445P/Lemmon-PANSTARRS,e,1.0891,126.5945,213.1164,4.044587,0.1211694,0.41442054,143.4713,11/12.0/2025,2000,g 15.0,4.0
# From MPEC 2022-YB4
447P/Sheppard-Tholen,e,7.4416,302.6383,97.4068,5.623730,0.0739039,0.17701990,87.5727,11/12.0/2025,2000,g 12.0,4.0
# From MPEC 2024-DC6
449P/Leonard,e,15.4687,242.5190,176.7786,3.599616,0.1443178,0.47971441,261.5422,11/12.0/2025,2000,g 16.0,4.0
# From MPEC 2025-UQ3
450P/LONEOS,e,10.8350,123.9715,25.4840,7.883521,0.0445270,0.31304077,339.3289,11/12.0/2025,2000,g  6.5,4.0
# From MPEC 2023-HD1
451P/Christensen,e,26.4870,300.8630,186.8161,6.351786,0.0615687,0.55929554,66.4873,11/12.0/2025,2000,g 13.5,4.0
# From MPEC 2024-NE4
452P/Sheppard-Jewitt,e,6.4223,123.6611,37.1190,7.313334,0.0498346,0.42873294,46.3855,11/12.0/2025,2000,g  9.0,4.0
# From MPEC 2023-RF3
453P/WISE-Lemmon,e,27.0552,42.8872,70.9192,5.468556,0.0770717,0.58317745,75.8799,11/12.0/2025,2000,g 14.0,4.0
# From MPEC 2023-CD7
454P/PANSTARRS,e,19.8070,54.5866,20.2208,4.212163,0.1140109,0.36130759,137.3041,11/12.0/2025,2000,g 14.0,4.0
# From MPEC 2022-Y14
455P/PANSTARRS,e,14.1339,146.1760,237.5398,3.153758,0.1759793,0.30427793,174.4423,11/12.0/2025,2000,g 17.0,4.0
# From MPC182892
456P/PANSTARRS,e,16.9649,243.1383,232.9783,3.168732,0.1747333,0.11565903,36.9097,11/12.0/2025,2000,g 13.5,4.0
# From MPC181194
457P/Lemmon-PANSTARRS,e,5.2258,175.9639,104.2930,2.645009,0.2291201,0.11831645,102.8850,11/12.0/2025,2000,g 15.5,4.0
# From MPEC 2023-HD1
458P/Jahn,e,13.6217,1.5499,104.9673,3.859545,0.1299870,0.31725452,144.0317,11/12.0/2025,2000,g 14.0,4.0
# From MPEC 2024-N80
459P/Catalina,e,7.1732,256.9862,205.2355,3.240486,0.1689620,0.57787404,167.9799,11/12.0/2025,2000,g 15.5,4.0
# From MPEC 2024-Q20
464P/PANSTARRS,e,21.6740,309.5789,267.4904,4.683150,0.0972516,0.28070305,96.1547,11/12.0/2025,2000,g 10.5,4.0
# From MPEC 2024-NE4
465P/Hill,e,25.8618,217.9355,140.9669,6.004459,0.0669874,0.61299857,61.5154,11/12.0/2025,2000,g 12.5,4.0
# From MPEC 2024-JU4
466P/PANSTARRS,e,14.8545,115.8929,197.9955,3.970858,0.1245597,0.49134655,113.7000,11/12.0/2025,2000,g 14.0,4.0
# From MPC181194
467P/LINEAR-Grauer,e,2.4794,43.2620,267.2486,5.824546,0.0701150,0.05427709,76.0418,11/12.0/2025,2000,g  9.0,4.0
# From MPEC 2024-O39
468P/SidingSpring,e,50.4549,356.1295,322.5595,7.114863,0.0519343,0.44476856,37.5004,11/12.0/2025,2000,g 11.5,4.0
# From MPC181194
469P/PANSTARRS,e,20.1711,178.9657,43.4913,4.343463,0.1088805,0.30815405,357.1276,11/12.0/2025,2000,g 13.5,4.0
# From MPC182892
470P/PANSTARRS,e,8.8439,246.1620,151.6545,4.462146,0.1045655,0.38925679,72.8275,11/12.0/2025,2000,g 15.5,4.0
# From MPC182892
471P/LINEAR-Lemmon,e,4.7970,283.3125,94.7388,5.688982,0.0726361,0.62758614,50.3600,11/12.0/2025,2000,g 12.0,4.0
# From MPEC 2025-V36
472P/NEAT-LINEAR,e,10.8261,205.8126,218.8081,7.765906,0.0455424,0.56392978,22.1457,11/12.0/2025,2000,g 10.5,4.0
# From MPEC 2024-MB8
473P/NEAT,e,56.8867,22.1913,42.9456,7.973721,0.0437736,0.82357821,27.3489,11/12.0/2025,2000,g 13.5,4.0
# From MPEC 2024-B74
474P/Hogan,e,1.0969,26.7515,11.2706,3.130849,0.1779143,0.18791975,151.3062,11/12.0/2025,2000,g 15.5,4.0
# From MPC185666
475P/Spacewatch-LINEAR,e,14.5240,147.3535,40.4224,7.320217,0.0497643,0.44300246,26.2880,11/12.0/2025,2000,g 11.0,4.0
# From MPC184421
476P/PANSTARRS,e,19.0053,57.0488,46.7433,4.774590,0.0944713,0.34577602,36.9861,11/12.0/2025,2000,g 12.5,4.0
# From MPEC 2024-GJ3
477P/PANSTARRS,e,8.9139,59.1403,305.8595,3.001595,0.1895291,0.41756776,130.1201,11/12.0/2025,2000,g 14.5,4.0
# From MPEC 2024-L77
478P/ATLAS,e,12.5252,127.2592,13.2666,3.648482,0.1414281,0.34381027,79.0221,11/12.0/2025,2000,g 13.5,4.0
# From MPEC 2024-PC5
479P/Elenin,e,15.3996,295.8320,263.4961,5.622623,0.0739257,0.77897231,41.0805,11/12.0/2025,2000,g 15.0,4.0
# From MPC182893
480P/PANSTARRS,e,13.7157,229.9841,214.4634,4.611777,0.0995180,0.24624442,92.8555,11/12.0/2025,2000,g 12.0,4.0
# From MPC181195
481P/Lemmon-PANSTARRS,e,6.0827,93.5499,356.8404,4.682719,0.0972651,0.34341562,83.3165,11/12.0/2025,2000,g 13.5,4.0
# From MPEC 2024-JU4
482P/PANSTARRS,e,24.4889,126.0723,339.7445,3.757281,0.1353298,0.49235271,120.9519,11/12.0/2025,2000,g 13.5,4.0
# From MPC186638
483P-A/PANSTARRS,e,14.1740,199.0274,49.5253,3.195270,0.1725610,0.22173048,234.0053,11/12.0/2025,2000,g 13.5,4.0
# From MPC185666
483P-B/PANSTARRS,e,14.1748,199.0266,49.5160,3.195189,0.1725676,0.22167316,234.0412,11/12.0/2025,2000,g 17.0,4.0
# From MPEC 2024-DD5
484P/Spacewatch,e,14.4742,265.3713,240.8251,3.756317,0.1353819,0.43310577,244.9891,11/12.0/2025,2000,g 16.0,4.0
# From MPEC 2024-JU4
485P/Sheppard-Tholen,e,10.0160,261.6451,196.1352,6.852670,0.0549433,0.41718363,44.4821,11/12.0/2025,2000,g 13.0,4.0
# From MPEC 2025-V36
486P/Leonard,e,2.2097,219.0249,93.9362,3.627042,0.1426840,0.36340783,31.7019,11/12.0/2025,2000,g 14.5,4.0
# From MPC188421
487P/SidingSpring,e,39.3662,49.2006,0.8393,5.160717,0.0840696,0.64834993,32.5721,11/12.0/2025,2000,g 13.5,4.0
# From MPEC 2024-UA9
488P/NEAT-PANSTARRS,e,11.4250,323.6459,2.2254,3.751290,0.1356542,0.55161767,73.3640,11/12.0/2025,2000,g 16.5,4.0
# From MPEC 2024-Q14
489P/Denning,e,4.0259,20.6003,109.4184,4.425715,0.1058593,0.64721014,357.6386,11/12.0/2025,2000,g 15.5,4.0
# From MPEC 2025-V36
491P/Spacewatch-PANSTARRS,e,9.3669,311.6834,298.8473,5.012770,0.0878188,0.25868730,37.9554,11/12.0/2025,2000,g  9.5,4.0
# From MPC185666
492P/LINEAR,e,11.4011,11.3049,40.9812,5.758378,0.0713270,0.69052135,34.2082,11/12.0/2025,2000,g 15.0,4.0
# From MPEC 2025-V36
493P/LONEOS,e,24.1085,1.0899,83.2211,7.174666,0.0512863,0.46715715,356.7641,11/12.0/2025,2000,g 12.0,2.0
# From MPEC 2024-RQ6
494P/PANSTARRS,e,7.7899,245.0434,48.8848,3.794353,0.1333514,0.35670236,70.6834,11/12.0/2025,2000,g 16.0,4.0
# From MPC188421
495P/Christensen,e,26.3565,291.6133,141.3338,4.761005,0.0948759,0.27329970,1.9625,11/12.0/2025,2000,g 11.5,4.0
# From MPC188421
496P/Hill,e,14.8143,63.5866,42.2507,6.099207,0.0654326,0.73420245,16.1436,11/12.0/2025,2000,g 14.0,4.0
# From MPC184421
497P/Spacewatch-PANSTARRS,e,10.4370,40.3612,32.3887,5.611114,0.0741533,0.63023655,20.0031,11/12.0/2025,2000,g 17.5,4.0
# From MPC184421
498P/LINEAR,e,14.4827,279.2299,179.0896,4.592949,0.1001306,0.57227274,32.8511,11/12.0/2025,2000,g 14.7,4.0
# From MPC188422
499P/Catalina,e,24.5832,139.3048,2.5659,3.018048,0.1879814,0.69149357,47.4839,11/12.0/2025,2000,g 18.5,4.0
# From MPC185667
500P/PANSTARRS,e,2.3015,111.5265,46.7042,3.416247,0.1560918,0.37594743,35.1229,11/12.0/2025,2000,g 16.0,4.0
# From MPC188422
502P/NEAT,e,11.3994,264.4835,37.7283,7.995532,0.0435946,0.47102125,4.3167,11/12.0/2025,2000,g  8.5,4.0
# From MPC185667
503P/PANSTARRS,e,10.5748,268.5819,17.9438,3.658054,0.1408734,0.48131758,0.9086,11/12.0/2025,2000,g 15.0,4.0
# From MPC186639
504P/,e,8.8064,221.1199,308.5351,3.744917,0.1360006,0.40609472,29.5034,11/12.0/2025,2000,g 14.3,4.0
# From MPC184407
505P/Palomar,e,11.3883,111.9418,143.9529,4.113011,0.1181583,0.31069762,352.1239,11/12.0/2025,2000,g 14.9,4.0
# From MPC186639
506P/,e,13.6547,325.6224,354.5839,5.585320,0.0746676,0.48241270,60.3607,11/12.0/2025,2000,g 12.7,4.0
# From MPC184407
507P/Lemmon,e,17.0903,233.1329,107.7636,6.212554,0.0636501,0.56856189,68.5650,11/12.0/2025,2000,g 12.6,4.0
# From MPC188422
508P/McNaught,e,31.7333,268.8300,338.8768,3.574899,0.1458171,0.56942039,18.0451,11/12.0/2025,2000,g 16.5,4.0
# From MPEC 2025-V36
509P/Catalina,e,8.6041,275.2079,180.1035,7.037583,0.0527921,0.47526397,353.2511,11/12.0/2025,2000,g 10.0,4.0
# From MPC188422
510P/Boattini,e,8.2276,280.6687,86.6865,6.483427,0.0597031,0.24805892,342.0157,11/12.0/2025,2000,g  9.5,4.0
# From MPEC 2025-UQ3
511P/PANSTARRS,e,14.7853,271.0275,81.2247,3.010107,0.1887257,0.23723896,23.3960,11/12.0/2025,2000,g 17.1,4.0
# From MPC188422
512P/PANSTARRS,e,12.5687,73.7452,308.7280,5.698461,0.0724549,0.15744874,331.8802,11/12.0/2025,2000,g 10.0,4.0
# From MPEC 2025-V36
513P/Broughton,e,21.3856,56.9969,304.8665,7.255398,0.0504327,0.55155588,7.6269,11/12.0/2025,2000,g 11.0,4.0
# From MPC107687
1I/`Oumuamua,h,09/09.4886/2017,122.6778,24.5997,241.6845,1.199252,0.255240,2000,23.0,2.0
# From MPEC 2025-R69
2I/Borisov,h,12/09.0572/2019,44.2624,307.8024,209.2911,3.345952,1.997724,2000,11.0,4.0
# From MPEC 2025-V36
3I/ATLAS,h,10/29.4838/2025,175.1131,322.1577,128.0122,6.138798,1.356362,2000,11.8,4.0
